LEMUR-2-ANDIS           
1 42838U 17042P   26068.55941107  .00023598  00000+0  79875-3 0  9998
2 42838  97.3659 249.7950 0009101   4.3248 355.8070 15.30557934473198
STARLINK-34171          
1 64082U 25107U   26068.42284673  .00029660  00000+0  10825-2 0  9993
2 64082  43.0027 202.7098 0001290 236.1366 123.9363 15.27594899 46089
